OBJECT B                
1 51825U 22019B   24211.93436285  .00013210  00000+0  55970-3 0  9990
2 51825  97.4267 282.7846 0015529  91.4461 268.8555 15.23165808133737
